FENGYUN 1C DEB          
1 30154U 99025TK  17345.39172491  .00000313  00000-0  30895-3 0  9999
2 30154  98.4734 291.0679 0195194 215.0984 268.2287 13.77010573546848
